NORAD_CAT_ID,OBJECT_NAME,OBJECT_TYPE,EPOCH,MEAN_MOTION,ECCENTRICITY,INCLINATION,RA_OF_ASC_NODE,ARG_OF_PERICENTER,MEAN_ANOMALY,BSTAR,MEAN_MOTION_DOT,MEAN_MOTION_DDOT,TLE_LINE0,TLE_LINE1,TLE_LINE2,SEMIMAJOR_AXIS,PERIOD,APOGEE,PERIGEE,DECAYED
53820.0,STARLINK-4758,PAYLOAD,2024-07-22 22:56:11,15.08850461,0.0001355,53.216,94.2046,82.3776,277.737,0.00024935,3.684e-05,0.0,0 STARLINK-4758,1 53820U 22114C   24204.95568966  .00003684  00000-0  24935-3 0  9991,2 53820  53.2160  94.2046 0001355  82.3776 277.7370 15.08850461103048,6917.848,95.437,540.651,538.776,0.0
53820.0,STARLINK-4758,PAYLOAD,2024-07-23 00:31:34,15.08853886,0.0001163,53.216,93.9058,103.1256,256.9866,0.0002553,3.779e-05,0.0,0 STARLINK-4758,1 53820U 22114C   24205.02192636  .00003779  00000-0  25530-3 0  9994,2 53820  53.2160  93.9058 0001163 103.1256 256.9866 15.08853886102513,6917.838,95.437,540.507,538.898,0.0
53820.0,STARLINK-4758,PAYLOAD,2024-07-23 10:03:52,15.08860283,0.0001092,53.2156,92.1221,118.7209,241.3893,0.00032943,4.962e-05,0.0,0 STARLINK-4758,1 53820U 22114C   24205.41936059  .00004962  00000-0  32943-3 0  9993,2 53820  53.2156  92.1221 0001092 118.7209 241.3893 15.08860283103116,6917.818,95.436,540.439,538.928,0.0
53820.0,STARLINK-4758,PAYLOAD,2024-07-23 22:46:59,15.08829557,0.0001463,53.2166,89.7408,126.7468,233.3658,-0.00018333,-3.204e-05,0.0,0 STARLINK-4758,1 53820U 22114C   24205.94929516 -.00003204  00000-0 -18333-3 0  9998,2 53820  53.2166  89.7408 0001463 126.7468 233.3658 15.08829557103191,6917.912,95.438,540.789,538.765,0.0
53820.0,STARLINK-4758,PAYLOAD,2024-07-24 22:37:45,15.08847584,0.0001867,53.218,85.2741,152.2471,207.8621,0.00013816,1.912e-05,0.0,0 STARLINK-4758,1 53820U 22114C   24206.94288781  .00001912  00000-0  13816-3 0  9994,2 53820  53.2180  85.2741 0001867 152.2471 207.8621 15.08847584103347,6917.857,95.437,541.014,538.431,0.0
53820.0,STARLINK-4758,PAYLOAD,2024-07-25 22:28:33,15.08842827,0.0001029,53.2166,80.8273,111.9758,248.1344,0.00026604,3.949e-05,0.0,0 STARLINK-4758,1 53820U 22114C   24207.93649649  .00003949  00000-0  26604-3 0  9999,2 53820  53.2166  80.8273 0001029 111.9758 248.1344 15.08842827103493,6917.872,95.437,540.449,539.025,0.0
53820.0,STARLINK-4758,PAYLOAD,2024-07-26 15:57:47,15.08846408,0.0001149,53.2163,77.5581,93.5173,266.5951,0.00017802,2.547e-05,0.0,0 STARLINK-4758,1 53820U 22114C   24208.66513519  .00002547  00000-0  17802-3 0  9999,2 53820  53.2163  77.5581 0001149  93.5173 266.5951 15.08846408103604,6917.861,95.437,540.521,538.931,0.0
53820.0,STARLINK-4758,PAYLOAD,2024-07-26 22:19:20,15.08846208,0.0001139,53.2168,76.3661,84.6392,275.473,0.00014852,2.077e-05,0.0,0 STARLINK-4758,1 53820U 22114C   24208.93009405  .00002077  00000-0  14852-3 0  9993,2 53820  53.2168  76.3661 0001139  84.6392 275.4730 15.08846208103105,6917.861,95.437,540.514,538.938,0.0
53820.0,STARLINK-4758,PAYLOAD,2024-07-27 20:34:44,15.0883611,0.0001243,53.2183,72.1998,74.6483,285.4646,-2.6191e-05,-7.05e-06,0.0,0 STARLINK-4758,1 53820U 22114C   24209.85745756 -.00000705  00000-0 -26191-4 0  9999,2 53820  53.2183  72.1998 0001243  74.6483 285.4646 15.08836110103787,6917.892,95.438,540.617,538.897,0.0
53820.0,STARLINK-4758,PAYLOAD,2024-07-27 22:10:07,15.08837972,0.0001198,53.2168,71.9069,88.0054,272.1075,2.6956e-05,1.41e-06,0.0,0 STARLINK-4758,1 53820U 22114C   24209.92369762  .00000141  00000-0  26956-4 0  9997,2 53820  53.2168  71.9069 0001198  88.0054 272.1075 15.08837972103256,6917.887,95.438,540.58,538.923,0.0
53820.0,STARLINK-4758,PAYLOAD,2024-07-28 20:25:32,15.08835548,0.0001298,53.2174,67.7415,85.8868,274.2272,4.1026e-05,3.65e-06,0.0,0 STARLINK-4758,1 53820U 22114C   24210.85106536  .00000365  00000-0  41026-4 0  9992,2 53820  53.2174  67.7415 0001298  85.8868 274.2272 15.08835548103394,6917.894,95.438,540.657,538.861,0.0
53820.0,STARLINK-4758,PAYLOAD,2024-07-28 22:00:55,15.08835478,0.0001271,53.2172,67.4442,84.5755,275.5382,3.2841e-05,2.35e-06,0.0,0 STARLINK-4758,1 53820U 22114C   24210.91730556  .00000235  00000-0  32841-4 0  9995,2 53820  53.2172  67.4442 0001271  84.5755 275.5382 15.08835478103940,6917.894,95.438,540.638,538.88,0.0
53820.0,STARLINK-4758,PAYLOAD,2024-07-29 13:54:46,15.08833148,0.0001191,53.2165,64.4696,85.7718,274.3411,0.00011836,1.596e-05,0.0,0 STARLINK-4758,1 53820U 22114C   24211.57970663  .00001596  00000-0  11836-3 0  9994,2 53820  53.2165  64.4696 0001191  85.7718 274.3411 15.08833148104047,6917.901,95.438,540.59,538.942,0.0
53820.0,STARLINK-4758,PAYLOAD,2024-07-29 21:51:41,15.08842823,0.0001165,53.2165,62.9832,86.1296,273.9829,0.00020514,2.979e-05,0.0,0 STARLINK-4758,1 53820U 22114C   24211.91090025  .00002979  00000-0  20514-3 0  9996,2 53820  53.2165  62.9832 0001165  86.1296 273.9829 15.08842823104092,6917.872,95.437,540.543,538.931,0.0
53820.0,STARLINK-4758,PAYLOAD,2024-07-30 07:24:00,15.08852481,0.0001197,53.2169,61.1996,84.635,275.4778,0.00023043,3.383e-05,0.0,0 STARLINK-4758,1 53820U 22114C   24212.30833337  .00003383  00000-0  23043-3 0  9991,2 53820  53.2169  61.1996 0001197  84.6350 275.4778 15.08852481103615,6917.842,95.437,540.535,538.879,0.0
53820.0,STARLINK-4758,PAYLOAD,2024-07-30 20:07:05,15.08844011,0.0001405,53.2182,58.8207,92.8133,267.302,0.0001616,2.285e-05,0.0,0 STARLINK-4758,1 53820U 22114C   24212.83826108  .00002285  00000-0  16160-3 0  9999,2 53820  53.2182  58.8207 0001405  92.8133 267.3020 15.08844011103698,6917.868,95.437,540.705,538.761,0.0
53820.0,STARLINK-4758,PAYLOAD,2024-07-30 21:42:28,15.08842857,0.0001351,53.2166,58.5231,86.4888,273.6259,0.000159,2.244e-05,0.0,0 STARLINK-4758,1 53820U 22114C   24212.90450220  .00002244  00000-0  15900-3 0  9991,2 53820  53.2166  58.5231 0001351  86.4888 273.6259 15.08842857104242,6917.872,95.437,540.671,538.802,0.0
53820.0,STARLINK-4758,PAYLOAD,2024-07-31 19:57:53,15.0884166,0.0001444,53.2181,54.3559,123.0386,237.0745,-2.1257e-05,-6.26e-06,0.0,0 STARLINK-4758,1 53820U 22114C   24213.83186434 -.00000626  00000-0 -21257-4 0  9994,2 53820  53.2181  54.3559 0001444 123.0386 237.0745 15.08841660103840,6917.875,95.437,540.739,538.741,0.0
53820.0,STARLINK-4758,PAYLOAD,2024-08-01 19:48:40,15.08825476,0.0001421,53.2178,49.8951,91.4663,268.6492,-0.00013129,-2.376e-05,0.0,0 STARLINK-4758,1 53820U 22114C   24214.82546345 -.00002376  00000-0 -13129-3 0  9997,2 53820  53.2178  49.8951 0001421  91.4663 268.6492 15.08825476104535,6917.925,95.438,540.773,538.807,0.0
53820.0,STARLINK-4758,PAYLOAD,2024-08-02 13:17:55,15.08815588,0.0001327,53.2173,46.6285,102.0073,258.1068,-9.3939e-05,-1.782e-05,0.0,0 STARLINK-4758,1 53820U 22114C   24215.55411515 -.00001782  00000-0 -93939-4 0  9996,2 53820  53.2173  46.6285 0001327 102.0073 258.1068 15.08815588104642,6917.955,95.439,540.738,538.902,0.0
53820.0,STARLINK-4758,PAYLOAD,2024-08-02 19:39:28,15.08814578,0.0001342,53.2174,45.4391,102.4228,257.6915,-9.6303e-05,-1.819e-05,0.0,0 STARLINK-4758,1 53820U 22114C   24215.81907901 -.00001819  00000-0 -96303-4 0  9993,2 53820  53.2174  45.4391 0001342 102.4228 257.6915 15.08814578104688,6917.958,95.439,540.751,538.895,0.0
53820.0,STARLINK-4758,PAYLOAD,2024-08-03 05:11:46,15.08826845,0.000133,53.218,43.6565,103.0885,257.0255,-2.8751e-05,-7.45e-06,0.0,0 STARLINK-4758,1 53820U 22114C   24216.21651321 -.00000745  00000-0 -28751-4 0  9999,2 53820  53.2180  43.6565 0001330 103.0885 257.0255 15.08826845104200,6917.921,95.438,540.706,538.866,0.0
53820.0,STARLINK-4758,PAYLOAD,2024-08-03 13:08:41,15.08855007,0.0001171,53.2173,42.166,108.1961,251.9158,-0.00033535,-5.623e-05,0.0,0 STARLINK-4758,1 53820U 22114C   24216.54769861 -.00005623  00000-0 -33535-3 0  9999,2 53820  53.2173  42.1660 0001171 108.1961 251.9158 15.08855007104258,6917.835,95.437,540.51,538.889,0.0
53820.0,STARLINK-4758,PAYLOAD,2024-08-03 19:30:13,15.0884208,0.0001224,53.2167,40.9811,96.5461,263.567,0.00021093,3.071e-05,0.0,0 STARLINK-4758,1 53820U 22114C   24216.81266197  .00003071  00000-0  21093-3 0  9992,2 53820  53.2167  40.9811 0001224  96.5461 263.5670 15.08842080104838,6917.874,95.437,540.586,538.892,0.0
53820.0,STARLINK-4758,PAYLOAD,2024-08-04 12:59:28,15.08838255,0.000128,53.2174,37.7079,104.1702,255.9433,0.00019594,2.832e-05,0.0,0 STARLINK-4758,1 53820U 22114C   24217.54130754  .00002832  00000-0  19594-3 0  9999,2 53820  53.2174  37.7079 0001280 104.1702 255.9433 15.08838255104406,6917.886,95.438,540.636,538.865,0.0
53820.0,STARLINK-4758,PAYLOAD,2024-08-04 19:21:01,15.08851406,0.0001271,53.2171,36.52,110.4705,249.6424,0.00059902,9.261e-05,0.0,0 STARLINK-4758,1 53820U 22114C   24217.80626410  .00009261  00000-0  59902-3 0  9997,2 53820  53.2171  36.5200 0001271 110.4705 249.6424 15.08851406104446,6917.846,95.437,540.59,538.831,0.0
53820.0,STARLINK-4758,PAYLOAD,2024-08-05 04:53:19,15.08874617,0.0001147,53.2168,34.7353,104.0661,256.0459,0.0021107,0.00033496,0.0,0 STARLINK-4758,1 53820U 22114C   24218.20370023  .00033496  00000-0  21107-2 0  9990,2 53820  53.2168  34.7353 0001147 104.0661 256.0459 15.08874617104509,6917.775,95.435,540.433,538.846,0.0
53820.0,STARLINK-4758,PAYLOAD,2024-08-05 20:47:12,15.08830408,0.0001325,53.2166,31.7602,88.0576,272.0568,0.0017336,0.00027403,0.0,0 STARLINK-4758,1 53820U 22114C   24218.86611203  .00027403  00000-0  17336-2 0  9990,2 53820  53.2166  31.7602 0001325  88.0576 272.0568 15.08830408104605,6917.91,95.438,540.691,538.858,0.0
53820.0,STARLINK-4758,PAYLOAD,2024-08-06 04:44:07,15.08847743,0.0001555,53.2174,30.2711,78.258,281.8587,0.0015259,0.00024085,0.0,0 STARLINK-4758,1 53820U 22114C   24219.19731197  .00024085  00000-0  15259-2 0  9997,2 53820  53.2174  30.2711 0001555  78.2580 281.8587 15.08847743105194,6917.857,95.437,540.797,538.646,0.0
53820.0,STARLINK-4758,PAYLOAD,2024-08-06 19:02:36,15.08853288,0.000122,53.216,27.5974,75.1044,285.0084,0.0017375,0.00027483,0.0,0 STARLINK-4758,1 53820U 22114C   24219.79347233  .00027483  00000-0  17375-2 0  9993,2 53820  53.2160  27.5974 0001220  75.1044 285.0084 15.08853288104748,6917.84,95.437,540.549,538.861,0.0
